start=new Date('2022-02-16T00:00:00.000Z').valueOf();
sats=[{"RCS_SIZE":"LARGE","TLE_LINE2":"2 44741  53.0549  24.1850 0001741  55.5065 304.6088 15.06394158124948","NORAD_CAT_ID":"44741","RA_OF_ASC_NODE":"24.1850","TLE_LINE1":"1 44741U 19074AE  22046.66173790 -.00000916  00000-0 -42625-4 0  9995","OBJECT_ID":"2019-074AE","REV_AT_EPOCH":"12494","TIME_SYSTEM":"UTC","OBJECT_TYPE":"PAYLOAD","APOAPSIS":"548.437","GP_ID":"196056512","CENTER_NAME":"EARTH","REF_FRAME":"TEME","MEAN_MOTION_DOT":"-0.00000916","EPHEMERIS_TYPE":"0","DECAY_DATE":null,"PERIOD":"95.593","ECCENTRICITY":"0.00017410","SEMIMAJOR_AXIS":"6925.366","COUNTRY_CODE":"US","INCLINATION":"53.0549","MEAN_ANOMALY":"304.6088","LAUNCH_DATE":"2019-11-11","MEAN_ELEMENT_THEORY":"SGP4","MEAN_MOTION_DDOT":"0.0000000000000","ARG_OF_PERICENTER":"55.5065","EPOCH":"2022-02-15T15:52:54.154560","MEAN_MOTION":"15.06394158","OBJECT_NAME":"STARLINK-1036","BSTAR":"-0.00004262500000","ELEMENT_SET_NO":"999","CLASSIFICATION_TYPE":"U","FILE":"3301463","PERIAPSIS":"546.026","SITE":"AFETR"},{"ECCENTRICITY":"0.00026660","DECAY_DATE":null,"PERIOD":"95.308","COUNTRY_CODE":"US","SEMIMAJOR_AXIS":"6911.631","INCLINATION":"52.9973","MEAN_ANOMALY":"265.5516","LAUNCH_DATE":"2019-11-11","MEAN_ELEMENT_THEORY":"SGP4","MEAN_MOTION_DDOT":"0.0000000000000","EPOCH":"2022-02-15T07:00:36.061920","ARG_OF_PERICENTER":"94.5779","MEAN_MOTION":"15.10886883","BSTAR":"0.00068777000000","OBJECT_NAME":"STARLINK-1037","ELEMENT_SET_NO":"999","CLASSIFICATION_TYPE":"U","FILE":"3301229","PERIAPSIS":"531.653","SITE":"AFETR","RCS_SIZE":"LARGE","TLE_LINE2":"2 44742  52.9973  16.5466 0002666  94.5779 265.5516 15.10886883124989","NORAD_CAT_ID":"44742","TLE_LINE1":"1 44742U 19074AF  22046.29208405  .00011306  00000-0  68777-3 0  9995","RA_OF_ASC_NODE":"16.5466","OBJECT_ID":"2019-074AF","REV_AT_EPOCH":"12498","OBJECT_TYPE":"PAYLOAD","TIME_SYSTEM":"UTC","APOAPSIS":"535.339","GP_ID":"196025916","CENTER_NAME":"EARTH","REF_FRAME":"TEME","MEAN_MOTION_DOT":"0.00011306","EPHEMERIS_TYPE":"0"},{"OBJECT_NAME":"STARLINK-1038","BSTAR":"0.00013925000000","MEAN_MOTION":"15.06400793","ELEMENT_SET_NO":"999","FILE":"3301463","CLASSIFICATION_TYPE":"U","SITE":"AFETR","PERIAPSIS":"545.922","ECCENTRICITY":"0.00018610","DECAY_DATE":null,"PERIOD":"95.592","INCLINATION":"53.0549","COUNTRY_CODE":"US","SEMIMAJOR_AXIS":"6925.346","MEAN_ELEMENT_THEORY":"SGP4","MEAN_ANOMALY":"310.9495","LAUNCH_DATE":"2019-11-11","ARG_OF_PERICENTER":"49.1655","EPOCH":"2022-02-15T17:04:33.962880","MEAN_MOTION_DDOT":"0.0000000000000","REV_AT_EPOCH":"12476","OBJECT_ID":"2019-074AG","APOAPSIS":"548.500","GP_ID":"196057515","CENTER_NAME":"EARTH","TIME_SYSTEM":"UTC","OBJECT_TYPE":"PAYLOAD","REF_FRAME":"TEME","EPHEMERIS_TYPE":"0","MEAN_MOTION_DOT":"0.00001793","RCS_SIZE":"LARGE","NORAD_CAT_ID":"44743","TLE_LINE2":"2 44743  53.0549  43.9596 0001861  49.1655 310.9495 15.06400793124768","RA_OF_ASC_NODE":"43.9596","TLE_LINE1":"1 44743U 19074AG  22046.71150420  .00001793  00000-0  13925-3 0  9990"},{"RCS_SIZE":"LARGE","NORAD_CAT_ID":"44744","TLE_LINE2":"2 44744  53.0544  43.9138 0003183  39.3584 320.7636 15.06695182124671","TLE_LINE1":"1 44744U 19074AH  22046.72242598  .00076266  00000-0  50433-2 0  9991","RA_OF_ASC_NODE":"43.9138","REV_AT_EPOCH":"12467","OBJECT_ID":"2019-074AH","GP_ID":"196057766","APOAPSIS":"548.513","CENTER_NAME":"EARTH","TIME_SYSTEM":"UTC","OBJECT_TYPE":"PAYLOAD","REF_FRAME":"TEME","EPHEMERIS_TYPE":"0","MEAN_MOTION_DOT":"0.00076266","ECCENTRICITY":"0.00031830","DECAY_DATE":null,"PERIOD":"95.573","COUNTRY_CODE":"US","INCLINATION":"53.0544","SEMIMAJOR_AXIS":"6924.444","MEAN_ELEMENT_THEORY":"SGP4","LAUNCH_DATE":"2019-11-11","MEAN_ANOMALY":"320.7636","ARG_OF_PERICENTER":"39.3584","EPOCH":"2022-02-15T17:20:17.604672","MEAN_MOTION_DDOT":"0.0000000000000","OBJECT_NAME":"STARLINK-1039","BSTAR":"0.00504330000000","MEAN_MOTION":"15.06695182","ELEMENT_SET_NO":"999","FILE":"3301463","CLASSIFICATION_TYPE":"U","SITE":"AFETR","PERIAPSIS":"544.105"},{"RCS_SIZE":"LARGE","TLE_LINE1":"1 44746U 19074AK  22046.70782651  .00000908  00000-0  79864-4 0  9991","RA_OF_ASC_NODE":"43.9804","TLE_LINE2":"2 44746  53.0567  43.9804 0001846  51.7706 308.3448 15.06384426124675","NORAD_CAT_ID":"44746","TIME_SYSTEM":"UTC","OBJECT_TYPE":"PAYLOAD","GP_ID":"196056013","APOAPSIS":"548.540","CENTER_NAME":"EARTH","OBJECT_ID":"2019-074AK","REV_AT_EPOCH":"12467","MEAN_MOTION_DOT":"0.00000908","EPHEMERIS_TYPE":"0","REF_FRAME":"TEME","COUNTRY_CODE":"US","INCLINATION":"53.0567","SEMIMAJOR_AXIS":"6925.396","ECCENTRICITY":"0.00018460","DECAY_DATE":null,"PERIOD":"95.593","MEAN_MOTION_DDOT":"0.0000000000000","ARG_OF_PERICENTER":"51.7706","EPOCH":"2022-02-15T16:59:16.210464","LAUNCH_DATE":"2019-11-11","MEAN_ANOMALY":"308.3448","MEAN_ELEMENT_THEORY":"SGP4","ELEMENT_SET_NO":"999","MEAN_MOTION":"15.06384426","OBJECT_NAME":"STARLINK-1041","BSTAR":"0.00007986400000","PERIAPSIS":"545.983","SITE":"AFETR","CLASSIFICATION_TYPE":"U","FILE":"3301463"},{"RCS_SIZE":"LARGE","TLE_LINE2":"2 44747  53.0564  43.5490 0001499  60.5624 299.5514 15.06394535124690","NORAD_CAT_ID":"44747","RA_OF_ASC_NODE":"43.5490","TLE_LINE1":"1 44747U 19074AL  22046.80365243  .00001163  00000-0  96940-4 0  9995","OBJECT_ID":"2019-074AL","REV_AT_EPOCH":"12469","OBJECT_TYPE":"PAYLOAD","TIME_SYSTEM":"UTC","CENTER_NAME":"EARTH","GP_ID":"196056265","APOAPSIS":"548.268","REF_FRAME":"TEME","MEAN_MOTION_DOT":"0.00001163","EPHEMERIS_TYPE":"0","ECCENTRICITY":"0.00014990","DECAY_DATE":null,"PERIOD":"95.592","SEMIMAJOR_AXIS":"6925.365","COUNTRY_CODE":"US","INCLINATION":"53.0564","MEAN_ANOMALY":"299.5514","LAUNCH_DATE":"2019-11-11","MEAN_ELEMENT_THEORY":"SGP4","MEAN_MOTION_DDOT":"0.0000000000000","EPOCH":"2022-02-15T19:17:15.569952","ARG_OF_PERICENTER":"60.5624","MEAN_MOTION":"15.06394535","BSTAR":"0.00009694000000","OBJECT_NAME":"STARLINK-1042","ELEMENT_SET_NO":"999","CLASSIFICATION_TYPE":"U","FILE":"3301463","PERIAPSIS":"546.192","SITE":"AFETR"},{"PERIOD":"95.592","DECAY_DATE":null,"ECCENTRICITY":"0.00017210","COUNTRY_CODE":"US","SEMIMAJOR_AXIS":"6925.358","INCLINATION":"53.0539","MEAN_ELEMENT_THEORY":"SGP4","LAUNCH_DATE":"2019-11-11","MEAN_ANOMALY":"289.6582","ARG_OF_PERICENTER":"70.4592","EPOCH":"2022-02-15T16:48:40.094784","MEAN_MOTION_DDOT":"0.0000000000000","OBJECT_NAME":"STARLINK-1043","BSTAR":"0.00046923000000","MEAN_MOTION":"15.06396789","ELEMENT_SET_NO":"999","FILE":"3301463","CLASSIFICATION_TYPE":"U","SITE":"AFETR","PERIAPSIS":"546.032","RCS_SIZE":"LARGE","NORAD_CAT_ID":"44748","TLE_LINE2":"2 44748  53.0539  44.0095 0001721  70.4592 289.6582 15.06396789124678","RA_OF_ASC_NODE":"44.0095","TLE_LINE1":"1 44748U 19074AM  22046.70046406  .00006714  00000-0  46923-3 0  9994","REV_AT_EPOCH":"12467","OBJECT_ID":"2019-074AM","GP_ID":"196057016","APOAPSIS":"548.415","CENTER_NAME":"EARTH","TIME_SYSTEM":"UTC","OBJECT_TYPE":"PAYLOAD","REF_FRAME":"TEME","EPHEMERIS_TYPE":"0","MEAN_MOTION_DOT":"0.00006714"},{"COUNTRY_CODE":"US","SEMIMAJOR_AXIS":"6925.353","INCLINATION":"53.0550","ECCENTRICITY":"0.00016670","DECAY_DATE":null,"PERIOD":"95.592","MEAN_MOTION_DDOT":"0.0000000000000","EPOCH":"2022-02-15T09:12:09.492480","ARG_OF_PERICENTER":"53.4479","LAUNCH_DATE":"2019-11-11","MEAN_ANOMALY":"306.6663","MEAN_ELEMENT_THEORY":"SGP4","ELEMENT_SET_NO":"999","MEAN_MOTION":"15.06398516","BSTAR":"0.00015930000000","OBJECT_NAME":"STARLINK-1046","PERIAPSIS":"546.064","SITE":"AFETR","CLASSIFICATION_TYPE":"U","FILE":"3301229","RCS_SIZE":"LARGE","RA_OF_ASC_NODE":"45.4449","TLE_LINE1":"1 44751U 19074AQ  22046.38344320  .00002092  00000-0  15930-3 0  9997","TLE_LINE2":"2 44751  53.0550  45.4449 0001667  53.4479 306.6663 15.06398516124622","NORAD_CAT_ID":"44751","OBJECT_TYPE":"PAYLOAD","TIME_SYSTEM":"UTC","GP_ID":"196027419","CENTER_NAME":"EARTH","APOAPSIS":"548.373","OBJECT_ID":"2019-074AQ","REV_AT_EPOCH":"12462","MEAN_MOTION_DOT":"0.00002092","EPHEMERIS_TYPE":"0","REF_FRAME":"TEME"},{"MEAN_MOTION":"15.06406890","OBJECT_NAME":"STARLINK-1047","BSTAR":"-0.00020142000000","ELEMENT_SET_NO":"999","CLASSIFICATION_TYPE":"U","FILE":"3301463","PERIAPSIS":"546.253","SITE":"AFETR","DECAY_DATE":null,"PERIOD":"95.592","ECCENTRICITY":"0.00013570","INCLINATION":"53.0575","COUNTRY_CODE":"US","SEMIMAJOR_AXIS":"6925.327","MEAN_ANOMALY":"303.1005","LAUNCH_DATE":"2019-11-11","MEAN_ELEMENT_THEORY":"SGP4","MEAN_MOTION_DDOT":"0.0000000000000","ARG_OF_PERICENTER":"57.0114","EPOCH":"2022-02-15T17:39:03.260160","OBJECT_ID":"2019-074AR","REV_AT_EPOCH":"12495","TIME_SYSTEM":"UTC","OBJECT_TYPE":"PAYLOAD","GP_ID":"196056513","CENTER_NAME":"EARTH","APOAPSIS":"548.132","REF_FRAME":"TEME","MEAN_MOTION_DOT":"-0.00003281","EPHEMERIS_TYPE":"0","RCS_SIZE":"LARGE","TLE_LINE2":"2 44752  53.0575  23.8519 0001357  57.0114 303.1005 15.06406890124953","NORAD_CAT_ID":"44752","RA_OF_ASC_NODE":"23.8519","TLE_LINE1":"1 44752U 19074AR  22046.73545440 -.00003281  00000-0 -20142-3 0  9997"},{"ECCENTRICITY":"0.00015830","DECAY_DATE":null,"PERIOD":"95.593","INCLINATION":"53.0543","COUNTRY_CODE":"US","SEMIMAJOR_AXIS":"6925.382","LAUNCH_DATE":"2019-11-11","MEAN_ANOMALY":"297.9591","MEAN_ELEMENT_THEORY":"SGP4","MEAN_MOTION_DDOT":"0.0000000000000","ARG_OF_PERICENTER":"62.1558","EPOCH":"2022-02-15T20:58:06.759840","MEAN_MOTION":"15.06389028","OBJECT_NAME":"STARLINK-1048","BSTAR":"0.00011374000000","ELEMENT_SET_NO":"999","CLASSIFICATION_TYPE":"U","FILE":"3301463","PERIAPSIS":"546.151","SITE":"AFETR","RCS_SIZE":"LARGE","TLE_LINE2":"2 44753  53.0543   3.2335 0001583  62.1558 297.9591 15.06389028125254","NORAD_CAT_ID":"44753","TLE_LINE1":"1 44753U 19074AS  22046.87368935  .00001413  00000-0  11374-3 0  9995","RA_OF_ASC_NODE":"3.2335","OBJECT_ID":"2019-074AS","REV_AT_EPOCH":"12525","TIME_SYSTEM":"UTC","OBJECT_TYPE":"PAYLOAD","CENTER_NAME":"EARTH","GP_ID":"196056765","APOAPSIS":"548.343","REF_FRAME":"TEME","MEAN_MOTION_DOT":"0.00001413","EPHEMERIS_TYPE":"0"}];
